{"type": "FeatureCollection", "features": [{"type": "Feature", "properties": {"norad_id": 2807, "name": "OPS 7218 (TRANSIT 16)", "group": "nnss", "lat": -80.28736245004032, "lon": -7.702184821652456, "alt_km": 1091.0655854197366, "timestamp": "2025-12-06T22:38:42.996860+00:00", "meta": {"OBJECT_NAME": "OPS 7218 (TRANSIT 16)", "OBJECT_ID": "1967-048A", "EPOCH": "2025-12-06T14:45:02.475936", "MEAN_MOTION": 13.50720552, "ECCENTRICITY": 0.0021677, "INCLINATION": 89.6732, "RA_OF_ASC_NODE": 354.2195, "ARG_OF_PERICENTER": 130.553, "MEAN_ANOMALY": 350.4958, "EPHEMERIS_TYPE": 0, "CLASSIFICATION_TYPE": "U", "NORAD_CAT_ID": 2807, "ELEMENT_SET_NO": 999, "REV_AT_EPOCH": 88193, "BSTAR": 0.00024881499, "MEAN_MOTION_DOT": 1.71e-06, "MEAN_MOTION_DDOT": 0}, "tle": {"line1": "1 02807U 67048A   25340.61461199  .00000171  00000+0  24881-3 0  9997", "line2": "2 02807  89.6732 354.2195 0021677 130.5530 350.4958 13.50720552881936"}}, "geometry": {"type": "Point", "coordinates": [-7.702184821652456, -80.28736245004032]}}, {"type": "Feature", "properties": {"norad_id": 2965, "name": "OPS 4947 (TRANSIT 17)", "group": "nnss", "lat": -72.54311138821365, "lon": 22.49113129255844, "alt_km": 1039.1834366204703, "timestamp": "2025-12-06T22:38:42.996882+00:00", "meta": {"OBJECT_NAME": "OPS 4947 (TRANSIT 17)", "OBJECT_ID": "1967-092A", "EPOCH": "2025-12-06T14:41:24.078336", "MEAN_MOTION": 13.53451394, "ECCENTRICITY": 0.00458656, "INCLINATION": 89.2502, "RA_OF_ASC_NODE": 24.9029, "ARG_OF_PERICENTER": 252.8855, "MEAN_ANOMALY": 220.1942, "EPHEMERIS_TYPE": 0, "CLASSIFICATION_TYPE": "U", "NORAD_CAT_ID": 2965, "ELEMENT_SET_NO": 999, "REV_AT_EPOCH": 87014, "BSTAR": 0.00029824008, "MEAN_MOTION_DOT": 2.13e-06, "MEAN_MOTION_DDOT": 0}, "tle": {"line1": "1 02965U 67092A   25340.61208424  .00000213  00000+0  29824-3 0  9990", "line2": "2 02965  89.2502  24.9029 0045865 252.8855 220.1942 13.53451394870147"}}, "geometry": {"type": "Point", "coordinates": [22.49113129255844, -72.54311138821365]}}, {"type": "Feature", "properties": {"norad_id": 3133, "name": "OPS 7034 (TRANSIT 18)", "group": "nnss", "lat": 65.0362643451302, "lon": 93.6812653774803, "alt_km": 1042.2130234589295, "timestamp": "2025-12-06T22:38:42.996895+00:00", "meta": {"OBJECT_NAME": "OPS 7034 (TRANSIT 18)", "OBJECT_ID": "1968-012A", "EPOCH": "2025-12-06T14:02:54.089664", "MEAN_MOTION": 13.51563687, "ECCENTRICITY": 0.0073283, "INCLINATION": 90.0273, "RA_OF_ASC_NODE": 273.6216, "ARG_OF_PERICENTER": 187.0443, "MEAN_ANOMALY": 346.8139, "EPHEMERIS_TYPE": 0, "CLASSIFICATION_TYPE": "U", "NORAD_CAT_ID": 3133, "ELEMENT_SET_NO": 999, "REV_AT_EPOCH": 56835, "BSTAR": 0.00028456944, "MEAN_MOTION_DOT": 1.98e-06, "MEAN_MOTION_DDOT": 0}, "tle": {"line1": "1 03133U 68012A   25340.58534826  .00000198  00000+0  28457-3 0  9998", "line2": "2 03133  90.0273 273.6216 0073283 187.0443 346.8139 13.51563687568356"}}, "geometry": {"type": "Point", "coordinates": [93.6812653774803, 65.0362643451302]}}, {"type": "Feature", "properties": {"norad_id": 4507, "name": "NNSS 19 (TRANSIT 19)", "group": "nnss", "lat": 86.40313037926366, "lon": 54.62051387024832, "alt_km": 1161.2310296553896, "timestamp": "2025-12-06T22:38:42.996907+00:00", "meta": {"OBJECT_NAME": "NNSS 19 (TRANSIT 19)", "OBJECT_ID": "1970-067A", "EPOCH": "2025-12-06T15:04:26.494752", "MEAN_MOTION": 13.51312777, "ECCENTRICITY": 0.01709444, "INCLINATION": 90.0057, "RA_OF_ASC_NODE": 234.5296, "ARG_OF_PERICENTER": 311.2245, "MEAN_ANOMALY": 47.4278, "EPHEMERIS_TYPE": 0, "CLASSIFICATION_TYPE": "U", "NORAD_CAT_ID": 4507, "ELEMENT_SET_NO": 999, "REV_AT_EPOCH": 72139, "BSTAR": 0.00035309811, "MEAN_MOTION_DOT": 2.59e-06, "MEAN_MOTION_DDOT": 0}, "tle": {"line1": "1 04507U 70067A   25340.62808443  .00000259  00000+0  35310-3 0  9995", "line2": "2 04507  90.0057 234.5296 0170944 311.2245  47.4278 13.51312777721394"}}, "geometry": {"type": "Point", "coordinates": [54.62051387024832, 86.40313037926366]}}, {"type": "Feature", "properties": {"norad_id": 6909, "name": "NNSS 20 (TRANSIT 20)", "group": "nnss", "lat": 73.7785766307983, "lon": 74.64571883031037, "alt_km": 873.9924621402088, "timestamp": "2025-12-06T22:38:42.996933+00:00", "meta": {"OBJECT_NAME": "NNSS 20 (TRANSIT 20)", "OBJECT_ID": "1973-081A", "EPOCH": "2025-12-06T11:37:59.649024", "MEAN_MOTION": 13.71430057, "ECCENTRICITY": 0.01565716, "INCLINATION": 89.856, "RA_OF_ASC_NODE": 255.1479, "ARG_OF_PERICENTER": 96.8338, "MEAN_ANOMALY": 265.0667, "EPHEMERIS_TYPE": 0, "CLASSIFICATION_TYPE": "U", "NORAD_CAT_ID": 6909, "ELEMENT_SET_NO": 999, "REV_AT_EPOCH": 80275, "BSTAR": 0.00037243995, "MEAN_MOTION_DOT": 3.77e-06, "MEAN_MOTION_DDOT": 0}, "tle": {"line1": "1 06909U 73081A   25340.48471816  .00000377  00000+0  37244-3 0  9995", "line2": "2 06909  89.8560 255.1479 0156571  96.8338 265.0667 13.71430057802752"}}, "geometry": {"type": "Point", "coordinates": [74.64571883031037, 73.7785766307983]}}, {"type": "Feature", "properties": {"norad_id": 10457, "name": "TRANSAT", "group": "nnss", "lat": 33.366940062480765, "lon": -101.42956721113181, "alt_km": 1064.8151744740535, "timestamp": "2025-12-06T22:38:42.996945+00:00", "meta": {"OBJECT_NAME": "TRANSAT", "OBJECT_ID": "1977-106A", "EPOCH": "2025-12-06T13:04:22.786752", "MEAN_MOTION": 13.48942166, "ECCENTRICITY": 0.00248246, "INCLINATION": 89.6483, "RA_OF_ASC_NODE": 78.8163, "ARG_OF_PERICENTER": 207.712, "MEAN_ANOMALY": 163.3582, "EPHEMERIS_TYPE": 0, "CLASSIFICATION_TYPE": "U", "NORAD_CAT_ID": 10457, "ELEMENT_SET_NO": 999, "REV_AT_EPOCH": 36660, "BSTAR": 0.00022413323, "MEAN_MOTION_DOT": 1.51e-06, "MEAN_MOTION_DDOT": 0}, "tle": {"line1": "1 10457U 77106A   25340.54470818  .00000151  00000+0  22413-3 0  9990", "line2": "2 10457  89.6483  78.8163 0024824 207.7120 163.3582 13.48942166366602"}}, "geometry": {"type": "Point", "coordinates": [-101.42956721113181, 33.366940062480765]}}, {"type": "Feature", "properties": {"norad_id": 12458, "name": "NOVA 1", "group": "nnss", "lat": -43.38203712070267, "lon": -88.39344625392515, "alt_km": 1181.979785388865, "timestamp": "2025-12-06T22:38:42.996956+00:00", "meta": {"OBJECT_NAME": "NOVA 1", "OBJECT_ID": "1981-044A", "EPOCH": "2025-12-06T14:19:04.562976", "MEAN_MOTION": 13.23277583, "ECCENTRICITY": 0.00156708, "INCLINATION": 89.8525, "RA_OF_ASC_NODE": 91.472, "ARG_OF_PERICENTER": 119.1159, "MEAN_ANOMALY": 252.0541, "EPHEMERIS_TYPE": 0, "CLASSIFICATION_TYPE": "U", "NORAD_CAT_ID": 12458, "ELEMENT_SET_NO": 999, "REV_AT_EPOCH": 15105, "BSTAR": 0.00022453576, "MEAN_MOTION_DOT": 1.04e-06, "MEAN_MOTION_DDOT": 0}, "tle": {"line1": "1 12458U 81044A   25340.59658059  .00000104  00000+0  22454-3 0  9992", "line2": "2 12458  89.8525  91.4720 0015670 119.1159 252.0541 13.23277583151050"}}, "geometry": {"type": "Point", "coordinates": [-88.39344625392515, -43.38203712070267]}}, {"type": "Feature", "properties": {"norad_id": 15362, "name": "NOVA 3", "group": "nnss", "lat": 78.97322685572149, "lon": -98.90512221957012, "alt_km": 1174.880387669913, "timestamp": "2025-12-06T22:38:42.996966+00:00", "meta": {"OBJECT_NAME": "NOVA 3", "OBJECT_ID": "1984-110A", "EPOCH": "2025-12-06T13:06:57.028896", "MEAN_MOTION": 13.2304336, "ECCENTRICITY": 0.00310046, "INCLINATION": 90.1224, "RA_OF_ASC_NODE": 80.4617, "ARG_OF_PERICENTER": 349.3419, "MEAN_ANOMALY": 21.2531, "EPHEMERIS_TYPE": 0, "CLASSIFICATION_TYPE": "U", "NORAD_CAT_ID": 15362, "ELEMENT_SET_NO": 999, "REV_AT_EPOCH": 98617, "BSTAR": 0.00026353353, "MEAN_MOTION_DOT": 1.19e-06, "MEAN_MOTION_DDOT": 0}, "tle": {"line1": "1 15362U 84110A   25340.54649339  .00000119  00000+0  26353-3 0  9990", "line2": "2 15362  90.1224  80.4617 0031004 349.3419  21.2531 13.23043360986174"}}, "geometry": {"type": "Point", "coordinates": [-98.90512221957012, 78.97322685572149]}}, {"type": "Feature", "properties": {"norad_id": 15935, "name": "OSCAR 30", "group": "nnss", "lat": -89.7365309520075, "lon": 138.49805867584024, "alt_km": 1256.5686857189812, "timestamp": "2025-12-06T22:38:42.996977+00:00", "meta": {"OBJECT_NAME": "OSCAR 30", "OBJECT_ID": "1985-066A", "EPOCH": "2025-12-06T14:10:20.038080", "MEAN_MOTION": 13.36076677, "ECCENTRICITY": 0.01693779, "INCLINATION": 90.1648, "RA_OF_ASC_NODE": 99.7466, "ARG_OF_PERICENTER": 101.0656, "MEAN_ANOMALY": 271.7047, "EPHEMERIS_TYPE": 0, "CLASSIFICATION_TYPE": "U", "NORAD_CAT_ID": 15935, "ELEMENT_SET_NO": 999, "REV_AT_EPOCH": 96371, "BSTAR": 0.00024509031, "MEAN_MOTION_DOT": 1.47e-06, "MEAN_MOTION_DDOT": 0}, "tle": {"line1": "1 15935U 85066A   25340.59050970  .00000147  00000+0  24509-3 0  9991", "line2": "2 15935  90.1648  99.7466 0169377 101.0656 271.7047 13.36076677963716"}}, "geometry": {"type": "Point", "coordinates": [138.49805867584024, -89.7365309520075]}}, {"type": "Feature", "properties": {"norad_id": 15936, "name": "OSCAR 24", "group": "nnss", "lat": -13.635084978513548, "lon": 92.24620499884652, "alt_km": 1191.3220351770715, "timestamp": "2025-12-06T22:38:42.996987+00:00", "meta": {"OBJECT_NAME": "OSCAR 24", "OBJECT_ID": "1985-066B", "EPOCH": "2025-12-06T06:40:45.007680", "MEAN_MOTION": 13.35934359, "ECCENTRICITY": 0.01703914, "INCLINATION": 90.1788, "RA_OF_ASC_NODE": 92.1911, "ARG_OF_PERICENTER": 108.3753, "MEAN_ANOMALY": 282.2306, "EPHEMERIS_TYPE": 0, "CLASSIFICATION_TYPE": "U", "NORAD_CAT_ID": 15936, "ELEMENT_SET_NO": 999, "REV_AT_EPOCH": 96557, "BSTAR": 0.00024653627, "MEAN_MOTION_DOT": 1.47e-06, "MEAN_MOTION_DDOT": 0}, "tle": {"line1": "1 15936U 85066B   25340.27829870  .00000147  00000+0  24654-3 0  9991", "line2": "2 15936  90.1788  92.1911 0170391 108.3753 282.2306 13.35934359965570"}}, "geometry": {"type": "Point", "coordinates": [92.24620499884652, -13.635084978513548]}}]}